EUTELSAT 174A           
1 28924U 05052A   26115.71572828 -.00000002  00000+0  00000+0 0  9993
2 28924   4.0890  77.1524 0006394 317.3579 250.8620  1.00272406 51800
EUTELSAT 33F            
1 29270U 06032A   26115.50235894  .00000143  00000+0  00000+0 0  9998
2 29270   1.5272  82.7836 0003494 311.1042  33.5781  1.00273769 46771
EUTELSAT HOTBIRD 13C    
1 33459U 08065A   26115.84231255 -.00000294  00000+0  00000+0 0  9992
2 33459   2.8179  79.7801 0004168 319.6031  67.4224  1.00270284 46826
EUTELSAT 36B            
1 36101U 09065A   26115.79100565  .00000099  00000+0  00000+0 0  9995
2 36101   0.3603  79.8188 0005843 313.2047 156.0480  1.00269346 60186
EUTELSAT KA-SAT 9A      
1 37258U 10069A   26115.14103385  .00000035  00000+0  00000+0 0  9997
2 37258   0.0614 354.8384 0005481 190.9529  87.1480  1.00200254 43476
EUTELSAT 7 WEST A       
1 37816U 11051A   26115.84489189 -.00000074  00000+0  00000+0 0  9999
2 37816   0.0803  35.7210 0002477  65.5888  49.3909  1.00271626 53351
EUTELSAT 16A            
1 37836U 11057A   26115.83933421  .00000090  00000+0  00000+0 0  9996
2 37836   0.0534   4.1075 0005736  36.1428 131.7629  1.00270443  6818
EUTELSAT 21B            
1 38992U 12062B   26115.78528564  .00000116  00000+0  00000+0 0  9998
2 38992   0.0708 355.2759 0002935  38.6977 124.1310  1.00269978 49303
EUTELSAT 70B            
1 39020U 12069A   26115.79499234 -.00000057  00000+0  00000+0 0  9995
2 39020   0.0694  16.0702 0005096  16.0771 178.3405  1.00271432 48980
EUTELSAT 117 WEST A     
1 39122U 13012A   26115.37091557 -.00000027  00000+0  00000+0 0  9994
2 39122   0.0202 303.7422 0002468  71.4556 214.9298  1.00272954 47907
EUTELSAT 7B             
1 39163U 13022A   26115.83933421  .00000034  00000+0  00000+0 0  9993
2 39163   0.0750  19.7025 0005907 357.7592 145.5336  1.00271179 47421
EXPRESS-AT1             
1 39612U 14010A   26115.86371929  .00000051  00000+0  00000+0 0  9991
2 39612   0.1231  84.0879 0001741  17.9480 120.3712  1.00288497 44292
EXPRESS-AT2             
1 39613U 14010B   26115.57819258  .00000065  00000+0  00000+0 0  9997
2 39613   0.0103 213.6533 0000200  99.7031 164.3764  1.00272118 43978
EUTELSAT 3B             
1 39773U 14030A   26115.85288590  .00000006  00000+0  00000+0 0  9991
2 39773   0.0699  16.8518 0003984  13.8922 133.2508  1.00272474 43548
EUTELSAT 115 WEST B     
1 40425U 15010B   26115.63100219 -.00000039  00000+0  00000+0 0  9990
2 40425   0.0107 103.2201 0000105  18.4457 204.2549  1.00270578 40863
EUTELSAT 8 WEST B       
1 40875U 15039B   26115.70812660 -.00000080  00000+0  00000+0 0  9994
2 40875   0.0691 355.3347 0003948  40.4735  64.8400  1.00271411 39134
EUTELSAT 9B             
1 41310U 16005A   26115.83933421  .00000048  00000+0  00000+0 0  9999
2 41310   0.0731  71.9690 0003453 285.7803 167.2516  1.00272936 37594
