[{"OBJECT_NAME":"EUTELSAT 174A","OBJECT_ID":"2005-052A","EPOCH":"2026-04-25T17:10:38.923392","MEAN_MOTION":1.00272406,"ECCENTRICITY":0.0006394,"INCLINATION":4.089,"RA_OF_ASC_NODE":77.1524,"ARG_OF_PERICENTER":317.3579,"MEAN_ANOMALY":250.862,"EPHEMERIS_TYPE":0,"CLASSIFICATION_TYPE":"U","NORAD_CAT_ID":28924,"ELEMENT_SET_NO":999,"REV_AT_EPOCH":5180,"BSTAR":0,"MEAN_MOTION_DOT":-2.0e-8,"MEAN_MOTION_DDOT":0},{"OBJECT_NAME":"EUTELSAT 33F","OBJECT_ID":"2006-032A","EPOCH":"2026-04-25T12:03:23.812416","MEAN_MOTION":1.00273769,"ECCENTRICITY":0.0003494,"INCLINATION":1.5272,"RA_OF_ASC_NODE":82.7836,"ARG_OF_PERICENTER":311.1042,"MEAN_ANOMALY":33.5781,"EPHEMERIS_TYPE":0,"CLASSIFICATION_TYPE":"U","NORAD_CAT_ID":29270,"ELEMENT_SET_NO":999,"REV_AT_EPOCH":4677,"BSTAR":0,"MEAN_MOTION_DOT":1.43e-6,"MEAN_MOTION_DDOT":0},{"OBJECT_NAME":"EUTELSAT HOTBIRD 13C","OBJECT_ID":"2008-065A","EPOCH":"2026-04-25T20:12:55.804320","MEAN_MOTION":1.00270284,"ECCENTRICITY":0.0004168,"INCLINATION":2.8179,"RA_OF_ASC_NODE":79.7801,"ARG_OF_PERICENTER":319.6031,"MEAN_ANOMALY":67.4224,"EPHEMERIS_TYPE":0,"CLASSIFICATION_TYPE":"U","NORAD_CAT_ID":33459,"ELEMENT_SET_NO":999,"REV_AT_EPOCH":4682,"BSTAR":0,"MEAN_MOTION_DOT":-2.94e-6,"MEAN_MOTION_DDOT":0},{"OBJECT_NAME":"EUTELSAT 36B","OBJECT_ID":"2009-065A","EPOCH":"2026-04-25T18:59:02.888160","MEAN_MOTION":1.00269346,"ECCENTRICITY":0.0005843,"INCLINATION":0.3603,"RA_OF_ASC_NODE":79.8188,"ARG_OF_PERICENTER":313.2047,"MEAN_ANOMALY":156.048,"EPHEMERIS_TYPE":0,"CLASSIFICATION_TYPE":"U","NORAD_CAT_ID":36101,"ELEMENT_SET_NO":999,"REV_AT_EPOCH":6018,"BSTAR":0,"MEAN_MOTION_DOT":9.9e-7,"MEAN_MOTION_DDOT":0},{"OBJECT_NAME":"EUTELSAT KA-SAT 9A","OBJECT_ID":"2010-069A","EPOCH":"2026-04-25T03:23:05.324640","MEAN_MOTION":1.00200254,"ECCENTRICITY":0.00054811,"INCLINATION":0.0614,"RA_OF_ASC_NODE":354.8384,"ARG_OF_PERICENTER":190.9529,"MEAN_ANOMALY":87.148,"EPHEMERIS_TYPE":0,"CLASSIFICATION_TYPE":"U","NORAD_CAT_ID":37258,"ELEMENT_SET_NO":999,"REV_AT_EPOCH":4347,"BSTAR":0,"MEAN_MOTION_DOT":3.5e-7,"MEAN_MOTION_DDOT":0},{"OBJECT_NAME":"EUTELSAT 7 WEST A","OBJECT_ID":"2011-051A","EPOCH":"2026-04-25T20:16:38.659296","MEAN_MOTION":1.00271626,"ECCENTRICITY":0.0002477,"INCLINATION":0.0803,"RA_OF_ASC_NODE":35.721,"ARG_OF_PERICENTER":65.5888,"MEAN_ANOMALY":49.3909,"EPHEMERIS_TYPE":0,"CLASSIFICATION_TYPE":"U","NORAD_CAT_ID":37816,"ELEMENT_SET_NO":999,"REV_AT_EPOCH":5335,"BSTAR":0,"MEAN_MOTION_DOT":-7.4e-7,"MEAN_MOTION_DDOT":0},{"OBJECT_NAME":"EUTELSAT 16A","OBJECT_ID":"2011-057A","EPOCH":"2026-04-25T20:08:38.475744","MEAN_MOTION":1.00270443,"ECCENTRICITY":0.0005736,"INCLINATION":0.0534,"RA_OF_ASC_NODE":4.1075,"ARG_OF_PERICENTER":36.1428,"MEAN_ANOMALY":131.7629,"EPHEMERIS_TYPE":0,"CLASSIFICATION_TYPE":"U","NORAD_CAT_ID":37836,"ELEMENT_SET_NO":999,"REV_AT_EPOCH":681,"BSTAR":0,"MEAN_MOTION_DOT":9.0e-7,"MEAN_MOTION_DDOT":0},{"OBJECT_NAME":"EUTELSAT 21B","OBJECT_ID":"2012-062B","EPOCH":"2026-04-25T18:50:48.679296","MEAN_MOTION":1.00269978,"ECCENTRICITY":0.0002935,"INCLINATION":0.0708,"RA_OF_ASC_NODE":355.2759,"ARG_OF_PERICENTER":38.6977,"MEAN_ANOMALY":124.131,"EPHEMERIS_TYPE":0,"CLASSIFICATION_TYPE":"U","NORAD_CAT_ID":38992,"ELEMENT_SET_NO":999,"REV_AT_EPOCH":4930,"BSTAR":0,"MEAN_MOTION_DOT":1.16e-6,"MEAN_MOTION_DDOT":0},{"OBJECT_NAME":"EUTELSAT 70B","OBJECT_ID":"2012-069A","EPOCH":"2026-04-25T19:04:47.338176","MEAN_MOTION":1.00271432,"ECCENTRICITY":0.0005096,"INCLINATION":0.0694,"RA_OF_ASC_NODE":16.0702,"ARG_OF_PERICENTER":16.0771,"MEAN_ANOMALY":178.3405,"EPHEMERIS_TYPE":0,"CLASSIFICATION_TYPE":"U","NORAD_CAT_ID":39020,"ELEMENT_SET_NO":999,"REV_AT_EPOCH":4898,"BSTAR":0,"MEAN_MOTION_DOT":-5.7e-7,"MEAN_MOTION_DDOT":0},{"OBJECT_NAME":"EUTELSAT 117 WEST A","OBJECT_ID":"2013-012A","EPOCH":"2026-04-25T08:54:07.105248","MEAN_MOTION":1.00272954,"ECCENTRICITY":0.0002468,"INCLINATION":0.0202,"RA_OF_ASC_NODE":303.7422,"ARG_OF_PERICENTER":71.4556,"MEAN_ANOMALY":214.9298,"EPHEMERIS_TYPE":0,"CLASSIFICATION_TYPE":"U","NORAD_CAT_ID":39122,"ELEMENT_SET_NO":999,"REV_AT_EPOCH":4790,"BSTAR":0,"MEAN_MOTION_DOT":-2.7e-7,"MEAN_MOTION_DDOT":0},{"OBJECT_NAME":"EUTELSAT 7B","OBJECT_ID":"2013-022A","EPOCH":"2026-04-25T20:08:38.475744","MEAN_MOTION":1.00271179,"ECCENTRICITY":0.0005907,"INCLINATION":0.075,"RA_OF_ASC_NODE":19.7025,"ARG_OF_PERICENTER":357.7592,"MEAN_ANOMALY":145.5336,"EPHEMERIS_TYPE":0,"CLASSIFICATION_TYPE":"U","NORAD_CAT_ID":39163,"ELEMENT_SET_NO":999,"REV_AT_EPOCH":4742,"BSTAR":0,"MEAN_MOTION_DOT":3.4e-7,"MEAN_MOTION_DDOT":0},{"OBJECT_NAME":"EXPRESS-AT1","OBJECT_ID":"2014-010A","EPOCH":"2026-04-25T20:43:45.346656","MEAN_MOTION":1.00288497,"ECCENTRICITY":0.0001741,"INCLINATION":0.1231,"RA_OF_ASC_NODE":84.0879,"ARG_OF_PERICENTER":17.948,"MEAN_ANOMALY":120.3712,"EPHEMERIS_TYPE":0,"CLASSIFICATION_TYPE":"U","NORAD_CAT_ID":39612,"ELEMENT_SET_NO":999,"REV_AT_EPOCH":4429,"BSTAR":0,"MEAN_MOTION_DOT":5.1e-7,"MEAN_MOTION_DDOT":0},{"OBJECT_NAME":"EXPRESS-AT2","OBJECT_ID":"2014-010B","EPOCH":"2026-04-25T13:52:35.838912","MEAN_MOTION":1.00272118,"ECCENTRICITY":2.0e-5,"INCLINATION":0.0103,"RA_OF_ASC_NODE":213.6533,"ARG_OF_PERICENTER":99.7031,"MEAN_ANOMALY":164.3764,"EPHEMERIS_TYPE":0,"CLASSIFICATION_TYPE":"U","NORAD_CAT_ID":39613,"ELEMENT_SET_NO":999,"REV_AT_EPOCH":4397,"BSTAR":0,"MEAN_MOTION_DOT":6.5e-7,"MEAN_MOTION_DDOT":0},{"OBJECT_NAME":"EUTELSAT 3B","OBJECT_ID":"2014-030A","EPOCH":"2026-04-25T20:28:09.341760","MEAN_MOTION":1.00272474,"ECCENTRICITY":0.0003984,"INCLINATION":0.0699,"RA_OF_ASC_NODE":16.8518,"ARG_OF_PERICENTER":13.8922,"MEAN_ANOMALY":133.2508,"EPHEMERIS_TYPE":0,"CLASSIFICATION_TYPE":"U","NORAD_CAT_ID":39773,"ELEMENT_SET_NO":999,"REV_AT_EPOCH":4354,"BSTAR":0,"MEAN_MOTION_DOT":6.0e-8,"MEAN_MOTION_DDOT":0},{"OBJECT_NAME":"EUTELSAT 115 WEST B","OBJECT_ID":"2015-010B","EPOCH":"2026-04-25T15:08:38.589216","MEAN_MOTION":1.00270578,"ECCENTRICITY":1.05e-5,"INCLINATION":0.0107,"RA_OF_ASC_NODE":103.2201,"ARG_OF_PERICENTER":18.4457,"MEAN_ANOMALY":204.2549,"EPHEMERIS_TYPE":0,"CLASSIFICATION_TYPE":"U","NORAD_CAT_ID":40425,"ELEMENT_SET_NO":999,"REV_AT_EPOCH":4086,"BSTAR":0,"MEAN_MOTION_DOT":-3.9e-7,"MEAN_MOTION_DDOT":0},{"OBJECT_NAME":"EUTELSAT 8 WEST B","OBJECT_ID":"2015-039B","EPOCH":"2026-04-25T16:59:42.138240","MEAN_MOTION":1.00271411,"ECCENTRICITY":0.0003948,"INCLINATION":0.0691,"RA_OF_ASC_NODE":355.3347,"ARG_OF_PERICENTER":40.4735,"MEAN_ANOMALY":64.84,"EPHEMERIS_TYPE":0,"CLASSIFICATION_TYPE":"U","NORAD_CAT_ID":40875,"ELEMENT_SET_NO":999,"REV_AT_EPOCH":3913,"BSTAR":0,"MEAN_MOTION_DOT":-8.0e-7,"MEAN_MOTION_DDOT":0},{"OBJECT_NAME":"EUTELSAT 9B","OBJECT_ID":"2016-005A","EPOCH":"2026-04-25T20:08:38.475744","MEAN_MOTION":1.00272936,"ECCENTRICITY":0.0003453,"INCLINATION":0.0731,"RA_OF_ASC_NODE":71.969,"ARG_OF_PERICENTER":285.7803,"MEAN_ANOMALY":167.2516,"EPHEMERIS_TYPE":0,"CLASSIFICATION_TYPE":"U","NORAD_CAT_ID":41310,"ELEMENT_SET_NO":999,"REV_AT_EPOCH":3759,"BSTAR":0,"MEAN_MOTION_DOT":4.8e-7,"MEAN_MOTION_DDOT":0}]
